NORAD_CAT_ID,OBJECT_NAME,OBJECT_TYPE,EPOCH,MEAN_MOTION,ECCENTRICITY,INCLINATION,RA_OF_ASC_NODE,ARG_OF_PERICENTER,MEAN_ANOMALY,BSTAR,MEAN_MOTION_DOT,MEAN_MOTION_DDOT,TLE_LINE0,TLE_LINE1,TLE_LINE2,SEMIMAJOR_AXIS,PERIOD,APOGEE,PERIGEE,DECAYED
53987.0,STARLINK-5112,PAYLOAD,2024-03-01 19:13:07,15.0884424,0.0001306,53.2163,286.8297,97.0213,263.0927,0.00016481,2.336e-05,0.0,0 STARLINK-5112,1 53987U 22125Z   24061.80077714  .00002336  00000-0  16481-3 0  9998,2 53987  53.2163 286.8297 0001306  97.0213 263.0927 15.08844240 78132,6917.867,95.437,540.636,538.829,0.0
53987.0,STARLINK-5112,PAYLOAD,2024-03-01 20:48:30,15.08844673,0.0001315,53.216,286.5323,96.901,263.2132,0.00016104,2.276e-05,0.0,0 STARLINK-5112,1 53987U 22125Z   24061.86701662  .00002276  00000-0  16104-3 0  9995,2 53987  53.2160 286.5323 0001315  96.9010 263.2132 15.08844673 78072,6917.866,95.437,540.641,538.821,0.0
53987.0,STARLINK-5112,PAYLOAD,2024-03-01 22:23:53,15.08845966,0.0001299,53.2161,286.235,95.6069,264.5071,0.00018804,2.706e-05,0.0,0 STARLINK-5112,1 53987U 22125Z   24061.93325601  .00002706  00000-0  18804-3 0  9995,2 53987  53.2161 286.2350 0001299  95.6069 264.5071 15.08845966 78084,6917.862,95.437,540.626,538.829,0.0
53987.0,STARLINK-5112,PAYLOAD,2024-03-02 20:39:17,15.0884774,0.0001269,53.2158,282.07,87.4949,272.6189,0.00011444,1.534e-05,0.0,0 STARLINK-5112,1 53987U 22125Z   24062.86061371  .00001534  00000-0  11444-3 0  9990,2 53987  53.2158 282.0700 0001269  87.4949 272.6189 15.08847740 78224,6917.857,95.437,540.6,538.844,0.0
53987.0,STARLINK-5112,PAYLOAD,2024-03-03 14:08:31,15.08841632,0.0001537,53.2161,278.8009,80.8956,279.221,1.6639e-05,-2.3e-07,0.0,0 STARLINK-5112,1 53987U 22125Z   24063.58925732 -.00000023  00000-0  16639-4 0  9995,2 53987  53.2161 278.8009 0001537  80.8956 279.2210 15.08841632 78330,6917.875,95.437,540.804,538.677,0.0
53987.0,STARLINK-5112,PAYLOAD,2024-03-03 20:30:04,15.08839952,0.0001543,53.2163,277.6119,75.6757,284.4406,1.8798e-05,1.1e-07,0.0,0 STARLINK-5112,1 53987U 22125Z   24063.85421849  .00000011  00000-0  18798-4 0  9999,2 53987  53.2163 277.6119 0001543  75.6757 284.4406 15.08839952 78448,6917.881,95.438,540.813,538.678,0.0
53987.0,STARLINK-5112,PAYLOAD,2024-03-04 07:37:45,15.08848663,0.0001185,53.2159,275.528,93.8516,266.2611,0.00011686,1.573e-05,0.0,0 STARLINK-5112,1 53987U 22125Z   24064.31789092  .00001573  00000-0  11686-3 0  9990,2 53987  53.2159 275.5280 0001185  93.8516 266.2611 15.08848663 78519,6917.854,95.437,540.539,538.899,0.0
53987.0,STARLINK-5112,PAYLOAD,2024-03-04 20:20:50,15.08847865,0.0001179,53.2151,273.1484,90.6331,269.4796,0.00015739,2.218e-05,0.0,0 STARLINK-5112,1 53987U 22125Z   24064.84781089  .00002218  00000-0  15739-3 0  9996,2 53987  53.2151 273.1484 0001179  90.6331 269.4796 15.08847865 78527,6917.856,95.437,540.537,538.906,0.0
53987.0,STARLINK-5112,PAYLOAD,2024-03-05 20:11:38,15.0883719,0.0001266,53.215,268.6872,88.0357,272.078,-6.9378e-06,-3.98e-06,0.0,0 STARLINK-5112,1 53987U 22125Z   24065.84141671 -.00000398  00000-0 -69378-5 0  9993,2 53987  53.2150 268.6872 0001266  88.0357 272.0780 15.08837190 78749,6917.889,95.438,540.63,538.878,0.0
53987.0,STARLINK-5112,PAYLOAD,2024-03-05 23:22:25,15.08828528,0.0001328,53.2158,268.0905,100.0821,260.0321,0.00025886,3.833e-05,0.0,0 STARLINK-5112,1 53987U 22125Z   24065.97390181  .00003833  00000-0  25886-3 0  9998,2 53987  53.2158 268.0905 0001328 100.0821 260.0321 15.08828528 78763,6917.915,95.438,540.699,538.862,0.0
53987.0,STARLINK-5112,PAYLOAD,2024-03-06 13:40:52,15.0884083,0.0001371,53.2163,265.4137,99.9725,260.1422,-1.7888e-05,-5.73e-06,0.0,0 STARLINK-5112,1 53987U 22125Z   24066.57005748 -.00000573  00000-0 -17888-4 0  9991,2 53987  53.2163 265.4137 0001371  99.9725 260.1422 15.08840830 78789,6917.878,95.438,540.691,538.794,0.0
53987.0,STARLINK-5112,PAYLOAD,2024-03-06 20:02:25,15.08839223,0.0001171,53.2159,264.2271,92.6823,267.4303,2.4064e-05,9.5e-07,0.0,0 STARLINK-5112,1 53987U 22125Z   24066.83501742  .00000095  00000-0  24064-4 0  9996,2 53987  53.2159 264.2271 0001171  92.6823 267.4303 15.08839223 78891,6917.883,95.438,540.558,538.938,0.0
53987.0,STARLINK-5112,PAYLOAD,2024-03-07 05:34:43,15.0884673,0.0001282,53.2171,262.4443,94.1093,266.0046,3.1853e-05,2.19e-06,0.0,0 STARLINK-5112,1 53987U 22125Z   24067.23245264  .00000219  00000-0  31853-4 0  9997,2 53987  53.2171 262.4443 0001282  94.1093 266.0046 15.08846730 78884,6917.86,95.437,540.612,538.838,0.0
53987.0,STARLINK-5112,PAYLOAD,2024-03-08 21:19:23,15.0883971,0.0001302,53.2167,255.0094,92.0327,268.0815,8.5885e-05,1.079e-05,0.0,0 STARLINK-5112,1 53987U 22125Z   24068.88846212  .00001079  00000-0  85885-4 0  9998,2 53987  53.2167 255.0094 0001302  92.0327 268.0815 15.08839710 79134,6917.881,95.438,540.647,538.846,0.0
53987.0,STARLINK-5112,PAYLOAD,2024-03-08 22:54:46,15.08840182,0.0001344,53.2166,254.7096,92.8278,267.2868,0.00010412,1.37e-05,0.0,0 STARLINK-5112,1 53987U 22125Z   24068.95470144  .00001370  00000-0  10412-3 0  9990,2 53987  53.2166 254.7096 0001344  92.8278 267.2868 15.08840182 79213,6917.88,95.438,540.675,538.815,0.0
53987.0,STARLINK-5112,PAYLOAD,2024-03-09 05:16:18,15.08844001,0.0001342,53.2169,253.5197,84.9796,275.1349,8.5681e-05,1.076e-05,0.0,0 STARLINK-5112,1 53987U 22125Z   24069.21966015  .00001076  00000-0  85681-4 0  9991,2 53987  53.2169 253.5197 0001342  84.9796 275.1349 15.08844001 79182,6917.868,95.437,540.662,538.805,0.0
53987.0,STARLINK-5112,PAYLOAD,2024-03-09 21:10:10,15.0883562,0.0001372,53.2173,250.5465,86.6766,273.4383,5.4149e-05,5.74e-06,0.0,0 STARLINK-5112,1 53987U 22125Z   24069.88206736  .00000574  00000-0  54149-4 0  9998,2 53987  53.2173 250.5465 0001372  86.6766 273.4383 15.08835620 79288,6917.894,95.438,540.708,538.81,0.0
53987.0,STARLINK-5112,PAYLOAD,2024-03-10 11:28:38,15.0884118,0.0001839,53.2141,247.8708,86.3115,273.8087,4.9449e-05,4.99e-06,0.0,0 STARLINK-5112,1 53987U 22125Z   24070.47822636  .00000499  00000-0  49449-4 0  9991,2 53987  53.2141 247.8708 0001839  86.3115 273.8087 15.08841180 79378,6917.877,95.437,541.014,538.47,0.0
53987.0,STARLINK-5112,PAYLOAD,2024-03-10 19:25:34,15.0884046,0.0001398,53.216,246.3847,85.2553,274.8599,-4.2439e-05,-9.63e-06,0.0,0 STARLINK-5112,1 53987U 22125Z   24070.80942872 -.00000963  00000-0 -42439-4 0  9993,2 53987  53.2160 246.3847 0001398  85.2553 274.8599 15.08840460 79426,6917.879,95.438,540.711,538.777,0.0
53987.0,STARLINK-5112,PAYLOAD,2024-03-11 04:57:53,15.08843945,0.0001269,53.2161,244.6003,88.2126,271.9011,-1.1877e-05,-4.77e-06,0.0,0 STARLINK-5112,1 53987U 22125Z   24071.20686466 -.00000477  00000-0 -11877-4 0  9994,2 53987  53.2161 244.6003 0001269  88.2126 271.9011 15.08843945 79550,6917.868,95.437,540.611,538.855,0.0
53987.0,STARLINK-5112,PAYLOAD,2024-03-12 11:10:12,15.08838877,0.000136,53.2154,238.9496,89.3274,270.7874,9.9147e-05,1.29e-05,0.0,0 STARLINK-5112,1 53987U 22125Z   24072.46542508  .00001290  00000-0  99147-4 0  9999,2 53987  53.2154 238.9496 0001360  89.3274 270.7874 15.08838877 79745,6917.884,95.438,540.69,538.808,0.0
53987.0,STARLINK-5112,PAYLOAD,2024-03-12 17:31:45,15.08838849,0.0001344,53.2154,237.7598,90.7021,269.4125,9.6031e-05,1.241e-05,0.0,0 STARLINK-5112,1 53987U 22125Z   24072.73038573  .00001241  00000-0  96031-4 0  9996,2 53987  53.2154 237.7598 0001344  90.7021 269.4125 15.08838849 79713,6917.884,95.438,540.679,538.819,0.0
53987.0,STARLINK-5112,PAYLOAD,2024-03-13 11:01:01,15.08822437,0.0001282,53.2124,234.4872,91.9593,268.1546,-0.00010156,-1.903e-05,0.0,0 STARLINK-5112,1 53987U 22125Z   24073.45904784 -.00001903  00000-0 -10156-3 0  9992,2 53987  53.2124 234.4872 0001282  91.9593 268.1546 15.08822437 79895,6917.934,95.439,540.686,538.912,0.0
53987.0,STARLINK-5112,PAYLOAD,2024-03-13 17:22:34,15.08823343,6.23e-05,53.2122,233.2987,70.5621,289.5438,-8.0045e-05,-1.561e-05,0.0,0 STARLINK-5112,1 53987U 22125Z   24073.72400946 -.00001561  00000-0 -80045-4 0  9998,2 53987  53.2122 233.2987 0000623  70.5621 289.5438 15.08823343 79861,6917.931,95.439,540.227,539.365,0.0
53987.0,STARLINK-5112,PAYLOAD,2024-03-15 10:42:35,15.08843203,0.000115,53.2153,225.5674,81.5803,278.5319,0.00011099,1.479e-05,0.0,0 STARLINK-5112,1 53987U 22125Z   24075.44624041  .00001479  00000-0  11099-3 0  9991,2 53987  53.2153 225.5674 0001150  81.5803 278.5319 15.08843203 80193,6917.871,95.437,540.531,538.94,0.0
53987.0,STARLINK-5112,PAYLOAD,2024-03-16 13:44:07,15.08850523,0.0001052,53.2159,220.5124,75.8754,284.2355,0.00015751,2.221e-05,0.0,0 STARLINK-5112,1 53987U 22125Z   24076.57231375  .00002221  00000-0  15751-3 0  9995,2 53987  53.2159 220.5124 0001052  75.8754 284.2355 15.08850523 80294,6917.848,95.437,540.441,538.985,0.0
53987.0,STARLINK-5112,PAYLOAD,2024-03-16 18:30:17,15.08853878,0.000108,53.2159,219.6176,84.8138,275.2977,8.6076e-05,1.083e-05,0.0,0 STARLINK-5112,1 53987U 22125Z   24076.77103400  .00001083  00000-0  86076-4 0  9998,2 53987  53.2159 219.6176 0001080  84.8138 275.2977 15.08853878 80394,6917.838,95.437,540.45,538.956,0.0
53987.0,STARLINK-5112,PAYLOAD,2024-03-17 13:34:54,15.08848492,0.0001232,53.2166,216.0532,88.5165,271.5968,-1.4099e-05,-5.12e-06,0.0,0 STARLINK-5112,1 53987U 22125Z   24077.56591172 -.00000512  00000-0 -14099-4 0  9997,2 53987  53.2166 216.0532 0001232  88.5165 271.5968 15.08848492 80440,6917.854,95.437,540.572,538.867,0.0
53987.0,STARLINK-5112,PAYLOAD,2024-03-17 16:45:41,15.08850769,0.000115,53.2169,215.4583,84.7622,275.3501,4.5633e-05,4.39e-06,0.0,0 STARLINK-5112,1 53987U 22125Z   24077.69839312  .00000439  00000-0  45633-4 0  9996,2 53987  53.2169 215.4583 0001150  84.7622 275.3501 15.08850769 80532,6917.847,95.437,540.508,538.917,0.0
53987.0,STARLINK-5112,PAYLOAD,2024-03-18 18:11:51,15.08846035,0.0001199,53.217,210.7008,81.9552,278.1576,5.0347e-05,5.14e-06,0.0,0 STARLINK-5112,1 53987U 22125Z   24078.75823107  .00000514  00000-0  50347-4 0  9991,2 53987  53.2170 210.7008 0001199  81.9552 278.1576 15.08846035 80699,6917.862,95.437,540.556,538.897,0.0
